IRIDIUM 126             
1 42809U 17039G   24201.60299507  .00000193  00000+0  61932-4 0  9997
2 42809  86.3964 285.1491 0002309  98.7218 261.4239 14.34217105369968
IRIDIUM 124             
1 42810U 17039H   24201.58420380  .00000273  00000+0  75123-4 0  9997
2 42810  86.4488 221.8910 0002587  85.5363 274.6133 14.43279180374492
IRIDIUM 128             
1 42811U 17039J   24201.59373156  .00000688  00000+0  23854-3 0  9990
2 42811  86.3989 316.6845 0002367  94.8220 265.3246 14.34221197369995
IRIDIUM 121             
1 42812U 17039K   24201.48249432  .00000045  00000+0  90784-5 0  9993
2 42812  86.3963 285.2220 0002239  93.6021 266.5431 14.34216860369822
IRIDIUM 133             
1 42955U 17061A   24201.55567941  .00000160  00000+0  50170-4 0  9994
2 42955  86.3990 316.8008 0002225  99.1973 260.9475 14.34216878354781
IRIDIUM 100             
1 42956U 17061B   24201.61910446  .00000107  00000+0  31047-4 0  9997
2 42956  86.3990 316.7093 0002167  96.4568 263.6875 14.34218083354795
IRIDIUM 122             
1 42957U 17061C   24201.58739146  .00000134  00000+0  40808-4 0  9995
2 42957  86.3990 316.7210 0002247  98.0232 262.1219 14.34218132354793
IRIDIUM 129             
1 42958U 17061D   24201.40345433  .00000643  00000+0  22257-3 0  9991
2 42958  86.3987 316.8577 0002200  99.6016 260.5428 14.34221210354787
